[Satellite]
VERSION=1.1
NAME=H-2A R/B
NICKNAME=H-2A R/B
TLE1=1 28932U 06002B   18020.91785939  .00000403  00000-0  43753-4 0  9997
TLE2=2 28932  98.2205 317.7128 0088796 318.7125  80.8944 14.91613133650158
